[{"OBJECT_NAME":"SIRION PATHFINDER-2","OBJECT_ID":"2018-099B","EPOCH":"2026-03-09T17:13:30.927648","MEAN_MOTION":15.13540628,"ECCENTRICITY":0.00072474,"INCLINATION":97.4389,"RA_OF_ASC_NODE":120.1436,"ARG_OF_PERICENTER":286.459,"MEAN_ANOMALY":73.5844,"EPHEMERIS_TYPE":0,"CLASSIFICATION_TYPE":"U","NORAD_CAT_ID":43759,"ELEMENT_SET_NO":999,"REV_AT_EPOCH":39757,"BSTAR":0.0003403547,"MEAN_MOTION_DOT":6.04e-5,"MEAN_MOTION_DDOT":0},{"OBJECT_NAME":"STARLINK-5748","OBJECT_ID":"2023-020AM","EPOCH":"2026-03-09T22:00:01.999584","MEAN_MOTION":15.12157009,"ECCENTRICITY":9.806e-5,"INCLINATION":43.001,"RA_OF_ASC_NODE":337.0108,"ARG_OF_PERICENTER":295.4837,"MEAN_ANOMALY":231.5743,"EPHEMERIS_TYPE":0,"CLASSIFICATION_TYPE":"U","NORAD_CAT_ID":55604,"ELEMENT_SET_NO":999,"REV_AT_EPOCH":578,"BSTAR":0.001003115,"MEAN_MOTION_DOT":0.00017424,"MEAN_MOTION_DDOT":0}]
